NORAD_CAT_ID,OBJECT_NAME,OBJECT_TYPE,EPOCH,MEAN_MOTION,ECCENTRICITY,INCLINATION,RA_OF_ASC_NODE,ARG_OF_PERICENTER,MEAN_ANOMALY,BSTAR,MEAN_MOTION_DOT,MEAN_MOTION_DDOT,TLE_LINE0,TLE_LINE1,TLE_LINE2,SEMIMAJOR_AXIS,PERIOD,APOGEE,PERIGEE,DECAYED
55955.0,STARLINK-5878,PAYLOAD,2024-05-05 05:23:12,14.9832527,0.000279,69.9993,162.542,267.7496,92.3344,-0.00014499,-1.822e-05,0.0,0 STARLINK-5878,1 55955U 23037AT  24126.22444519 -.00001822  00000-0 -14499-3 0  9995,2 55955  69.9993 162.5420 0002790 267.7496  92.3344 14.98325270 63932,6950.208,96.107,574.012,570.133,0.0
55955.0,STARLINK-5878,PAYLOAD,2024-05-05 11:47:44,14.98321537,0.0002808,69.9993,161.8687,268.3564,91.7273,-0.00014467,-1.818e-05,0.0,0 STARLINK-5878,1 55955U 23037AT  24126.49148893 -.00001818  00000-0 -14467-3 0  9990,2 55955  69.9993 161.8687 0002808 268.3564  91.7273 14.98321537 63635,6950.219,96.108,574.036,570.132,0.0
55955.0,STARLINK-5878,PAYLOAD,2024-05-05 19:48:24,14.98314252,0.0002884,69.999,161.0275,252.6285,107.4559,0.00011047,1.225e-05,0.0,0 STARLINK-5878,1 55955U 23037AT  24126.82528840  .00001225  00000-0  11047-3 0  9992,2 55955  69.9990 161.0275 0002884 252.6285 107.4559 14.98314252 63680,6950.242,96.108,574.111,570.102,0.0
55955.0,STARLINK-5878,PAYLOAD,2024-05-06 05:25:13,14.98317373,0.000306,69.9985,160.0161,268.7427,91.3381,0.00012589,1.409e-05,0.0,0 STARLINK-5878,1 55955U 23037AT  24127.22584792  .00001409  00000-0  12589-3 0  9991,2 55955  69.9985 160.0161 0003060 268.7427  91.3381 14.98317373 64086,6950.232,96.108,574.224,569.97,0.0
55955.0,STARLINK-5878,PAYLOAD,2024-05-06 11:49:45,14.9832037,0.0003051,69.9985,159.3428,268.7864,91.2945,0.00013233,1.486e-05,0.0,0 STARLINK-5878,1 55955U 23037AT  24127.49288776  .00001486  00000-0  13233-3 0  9995,2 55955  69.9985 159.3428 0003051 268.7864  91.2945 14.98320370 63780,6950.223,96.108,574.208,569.967,0.0
55955.0,STARLINK-5878,PAYLOAD,2024-05-06 19:50:25,14.98324935,0.0003076,69.9985,158.5012,268.7628,91.3179,0.00013599,1.53e-05,0.0,0 STARLINK-5878,1 55955U 23037AT  24127.82668621  .00001530  00000-0  13599-3 0  9998,2 55955  69.9985 158.5012 0003076 268.7628  91.3179 14.98324935 64170,6950.209,96.107,574.211,569.936,0.0
55955.0,STARLINK-5878,PAYLOAD,2024-05-07 11:51:45,14.98332526,0.0003111,69.9984,156.8178,268.6418,91.4385,0.00013471,1.515e-05,0.0,0 STARLINK-5878,1 55955U 23037AT  24128.49428165  .00001515  00000-0  13471-3 0  9991,2 55955  69.9984 156.8178 0003111 268.6418  91.4385 14.98332526 63937,6950.185,96.107,574.212,569.888,0.0
55955.0,STARLINK-5878,PAYLOAD,2024-05-08 11:53:45,14.98342933,0.0003131,69.9983,154.2928,268.8993,91.1807,0.00011679,1.301e-05,0.0,0 STARLINK-5878,1 55955U 23037AT  24129.49566996  .00001301  00000-0  11679-3 0  9998,2 55955  69.9983 154.2928 0003131 268.8993  91.1807 14.98342933 64427,6950.153,96.106,574.194,569.842,0.0
55955.0,STARLINK-5878,PAYLOAD,2024-05-08 18:18:18,14.9833963,0.0003128,69.9984,153.6194,268.7892,91.2908,4.4479e-05,4.38e-06,0.0,0 STARLINK-5878,1 55955U 23037AT  24129.76271170  .00000438  00000-0  44479-4 0  9990,2 55955  69.9984 153.6194 0003128 268.7892  91.2908 14.98339630 64129,6950.163,96.106,574.202,569.854,0.0
55955.0,STARLINK-5878,PAYLOAD,2024-05-09 05:31:14,14.9833895,0.0003075,69.9985,152.4413,268.7289,91.3517,-2.02e-05,-3.34e-06,0.0,0 STARLINK-5878,1 55955U 23037AT  24130.23003075 -.00000334  00000-0 -20200-4 0  9994,2 55955  69.9985 152.4413 0003075 268.7289  91.3517 14.98338950 64538,6950.165,96.106,574.167,569.893,0.0
55955.0,STARLINK-5878,PAYLOAD,2024-05-09 10:19:38,14.98338459,0.0003067,69.9986,151.9364,268.4501,91.6306,-2.2001e-05,-3.56e-06,0.0,0 STARLINK-5878,1 55955U 23037AT  24130.43030976 -.00000356  00000-0 -22001-4 0  9991,2 55955  69.9986 151.9364 0003067 268.4501  91.6306 14.98338459 64222,6950.167,96.106,574.163,569.9,0.0
55955.0,STARLINK-5878,PAYLOAD,2024-05-10 10:21:38,14.98349345,0.0002936,69.9989,149.4117,268.0437,92.0386,6.0177e-05,6.25e-06,0.0,0 STARLINK-5878,1 55955U 23037AT  24131.43169326  .00000625  00000-0  60177-4 0  9997,2 55955  69.9989 149.4117 0002936 268.0437  92.0386 14.98349345 64714,6950.133,96.106,574.039,569.958,0.0
55955.0,STARLINK-5878,PAYLOAD,2024-05-10 18:22:18,14.98349432,0.0002869,69.999,148.57,267.5693,92.5137,-0.00014194,-1.787e-05,0.0,0 STARLINK-5878,1 55955U 23037AT  24131.76549465 -.00001787  00000-0 -14194-3 0  9998,2 55955  69.9990 148.5700 0002869 267.5693  92.5137 14.98349432 64421,6950.133,96.106,573.992,570.004,0.0
55955.0,STARLINK-5878,PAYLOAD,2024-05-11 03:59:07,14.9833703,0.0002732,69.9995,147.5601,268.6749,91.4097,-1.4838e-05,-2.7e-06,0.0,0 STARLINK-5878,1 55955U 23037AT  24132.16605768 -.00000270  00000-0 -14838-4 0  9994,2 55955  69.9995 147.5601 0002732 268.6749  91.4097 14.98337030 64826,6950.171,96.107,573.935,570.137,0.0
55955.0,STARLINK-5878,PAYLOAD,2024-05-11 18:24:19,14.98334056,0.0002338,70.0003,146.044,272.468,87.6211,-1.5712e-05,-2.8e-06,0.0,0 STARLINK-5878,1 55955U 23037AT  24132.76689751 -.00000280  00000-0 -15712-4 0  9997,2 55955  70.0003 146.0440 0002338 272.4680  87.6211 14.98334056 64575,6950.18,96.107,573.67,570.42,0.0
55955.0,STARLINK-5878,PAYLOAD,2024-05-12 05:37:16,14.98330385,0.0002629,69.9994,144.8658,267.9563,92.1295,-0.00020938,-2.59e-05,0.0,0 STARLINK-5878,1 55955U 23037AT  24133.23422362 -.00002590  00000-0 -20938-3 0  9994,2 55955  69.9994 144.8658 0002629 267.9563  92.1295 14.98330385 64989,6950.192,96.107,573.884,570.229,0.0
55955.0,STARLINK-5878,PAYLOAD,2024-05-12 10:25:41,14.98328019,0.0002864,69.9987,144.362,270.0818,90.0013,-0.00020901,-2.586e-05,0.0,0 STARLINK-5878,1 55955U 23037AT  24133.43450475 -.00002586  00000-0 -20901-3 0  9997,2 55955  69.9987 144.3620 0002864 270.0818  90.0013 14.98328019 64676,6950.199,96.107,574.055,570.073,0.0
55955.0,STARLINK-5878,PAYLOAD,2024-05-12 18:26:21,14.98322772,0.00028,69.9988,143.5195,271.7836,88.3002,-0.00017134,-2.136e-05,0.0,0 STARLINK-5878,1 55955U 23037AT  24133.76830792 -.00002136  00000-0 -17134-3 0  9992,2 55955  69.9988 143.5195 0002800 271.7836  88.3002 14.98322772 64727,6950.215,96.107,574.026,570.134,0.0
55955.0,STARLINK-5878,PAYLOAD,2024-05-13 02:27:02,14.98319,0.0002902,69.9982,142.6779,270.8544,89.2282,-0.00012189,-1.547e-05,0.0,0 STARLINK-5878,1 55955U 23037AT  24134.10211005 -.00001547  00000-0 -12189-3 0  9991,2 55955  69.9982 142.6779 0002902 270.8544  89.2282 14.98319000 65112,6950.227,96.108,574.109,570.075,0.0
55955.0,STARLINK-5878,PAYLOAD,2024-05-13 10:27:42,14.98317799,0.0003059,69.9982,141.8365,271.6123,88.4685,-8.1041e-05,-1.06e-05,0.0,0 STARLINK-5878,1 55955U 23037AT  24134.43591228 -.00001060  00000-0 -81041-4 0  9999,2 55955  69.9982 141.8365 0003059 271.6123  88.4685 14.98317799 64828,6950.231,96.108,574.222,569.97,0.0
55955.0,STARLINK-5878,PAYLOAD,2024-05-13 23:16:47,14.983155,0.0003033,69.9981,140.4899,272.5454,87.5358,4.0609e-05,3.91e-06,0.0,0 STARLINK-5878,1 55955U 23037AT  24134.96999311  .00000391  00000-0  40609-4 0  9991,2 55955  69.9981 140.4899 0003033 272.5454  87.5358 14.98315500 64907,6950.238,96.108,574.211,569.995,0.0
55955.0,STARLINK-5878,PAYLOAD,2024-05-14 04:05:11,14.98315976,0.0003034,69.9981,139.9849,272.5297,87.5515,4.3681e-05,4.28e-06,0.0,0 STARLINK-5878,1 55955U 23037AT  24135.17027459  .00000428  00000-0  43681-4 0  9994,2 55955  69.9981 139.9849 0003034 272.5297  87.5515 14.98315976 65274,6950.236,96.108,574.21,569.993,0.0
55955.0,STARLINK-5878,PAYLOAD,2024-05-14 10:29:44,14.98318385,0.0003037,69.9982,139.3116,272.7467,87.3345,4.6741e-05,4.65e-06,0.0,0 STARLINK-5878,1 55955U 23037AT  24135.43731527  .00000465  00000-0  46741-4 0  9992,2 55955  69.9982 139.3116 0003037 272.7467  87.3345 14.98318385 64972,6950.229,96.108,574.205,569.983,0.0
55955.0,STARLINK-5878,PAYLOAD,2024-05-14 16:54:16,14.98320139,0.000303,69.9983,138.6383,273.0305,87.0508,7.5585e-05,8.09e-06,0.0,0 STARLINK-5878,1 55955U 23037AT  24135.70435539  .00000809  00000-0  75585-4 0  9996,2 55955  69.9983 138.6383 0003030 273.0305  87.0508 14.98320139 65013,6950.223,96.108,574.194,569.982,0.0
55955.0,STARLINK-5878,PAYLOAD,2024-05-15 05:43:20,14.98322672,0.0003063,69.9982,137.2916,273.0327,87.0481,0.00011783,1.313e-05,0.0,0 STARLINK-5878,1 55955U 23037AT  24136.23843556  .00001313  00000-0  11783-3 0  9997,2 55955  69.9982 137.2916 0003063 273.0327  87.0481 14.98322672 65439,6950.216,96.107,574.209,569.952,0.0
55955.0,STARLINK-5878,PAYLOAD,2024-05-15 10:31:44,14.98324299,0.0003062,69.9982,136.7865,273.4378,86.6431,0.00012543,1.404e-05,0.0,0 STARLINK-5878,1 55955U 23037AT  24136.43871515  .00001404  00000-0  12543-3 0  9991,2 55955  69.9982 136.7865 0003062 273.4378  86.6431 14.98324299 65128,6950.211,96.107,574.204,569.947,0.0
55955.0,STARLINK-5878,PAYLOAD,2024-05-16 05:45:21,14.98334788,0.0003095,69.9981,134.7667,271.5264,88.5541,0.00012603,1.411e-05,0.0,0 STARLINK-5878,1 55955U 23037AT  24137.23982823  .00001411  00000-0  12603-3 0  9990,2 55955  69.9981 134.7667 0003095 271.5264  88.5541 14.98334788 65581,6950.178,96.107,574.194,569.892,0.0
55955.0,STARLINK-5878,PAYLOAD,2024-05-16 08:57:37,14.9833669,0.0003066,69.9981,134.4299,272.7517,87.3291,0.000142,1.602e-05,0.0,0 STARLINK-5878,1 55955U 23037AT  24137.37334614  .00001602  00000-0  14200-3 0  9991,2 55955  69.9981 134.4299 0003066 272.7517  87.3291 14.98336690 65269,6950.172,96.107,574.168,569.906,0.0
55955.0,STARLINK-5878,PAYLOAD,2024-05-16 16:58:17,14.98341539,0.0003135,69.9981,133.5879,274.2234,85.8567,2.9509e-05,2.59e-06,0.0,0 STARLINK-5878,1 55955U 23037AT  24137.70714381  .00000259  00000-0  29509-4 0  9997,2 55955  69.9981 133.5879 0003135 274.2234  85.8567 14.98341539 65316,6950.157,96.106,574.201,569.843,0.0
55955.0,STARLINK-5878,PAYLOAD,2024-05-17 05:47:21,14.98338106,0.000292,69.9985,132.242,270.7084,89.3741,6.2175e-05,6.49e-06,0.0,0 STARLINK-5878,1 55955U 23037AT  24138.24122306  .00000649  00000-0  62175-4 0  9996,2 55955  69.9985 132.2420 0002920 270.7084  89.3741 14.98338106 65738,6950.168,96.106,574.062,570.003,0.0
